CANX-4                  
1 40055U 14034C   24311.51591548  .00005613  00000+0  76441-3 0  9994
2 40055  98.3813 152.2221 0014453  95.2617 265.0243 14.79076406557610
CANX-5                  
1 40056U 14034D   24310.50537353  .00005444  00000+0  74163-3 0  9998
2 40056  98.3812 151.1791 0014464  98.3394 261.9456 14.79075178548243
UKUBE-1                 
1 40074U 14037F   24311.35877912  .00026263  00000+0  21928-2 0  9995
2 40074  98.3506 250.4896 0003397 349.4635  10.6514 14.98519086560030
BRITE-PL2 (HEWELIUSZ)   
1 40119U 14049B   24310.55285896  .00008689  00000+0  89291-3 0  9993
2 40119  97.8866  49.7512 0014168 257.7789 102.1842 14.90523428553621
AEROCUBE 5C             
1 40965U 15058B   24311.34369684  .00015245  00000+0  12922-2 0  9991
2 40965  64.7695 284.5293 0189328 265.6609  92.2848 14.85250722278120
AEROCUBE 7              
1 40966U 15058C   24311.35758964  .00018808  00000+0  15173-2 0  9995
2 40966  64.7667 276.7722 0183109 265.3102  92.7077 14.87698776278256
FOX-1A (AO-85)          
1 40967U 15058D   24311.12396879  .00013676  00000+0  11868-2 0  9999
2 40967  64.7770 299.5996 0187460 261.4885  96.4941 14.84684941 26042
SINOD-D 1               
1 40968U 15058E   24310.34123755  .00019569  00000+0  16071-2 0  9992
2 40968  64.7772 293.2475 0180449 260.7363  97.3301 14.87363973 28786
SNAP-3 ALICE            
1 40970U 15058G   24311.14398105  .00042804  00000+0  24100-2 0  9997
2 40970  64.7683 238.2178 0140726 258.3938 100.1357 15.04888537 27077
LMRST-SAT               
1 40971U 15058H   24311.37482827  .00015697  00000+0  13559-2 0  9994
2 40971  64.7771 294.3898 0188852 262.7962  95.1645 14.84609049 26085
SNAP-3 EDDIE            
1 40972U 15058J   24310.51910142  .00049437  00000+0  27465-2 0  9996
2 40972  64.7655 233.3031 0141040 259.5177  99.0024 15.05261054 29080
PROPCUBE 3              
1 40973U 15058K   24311.07734234  .00015756  00000+0  12979-2 0  9996
2 40973  64.7706 281.6927 0184869 264.2828  93.7179 14.86816649 27107
BISONSAT                
1 40974U 15058L   24311.12743114  .00030682  00000+0  20454-2 0  9992
2 40974  64.7667 250.0771 0159629 261.9217  96.3762 14.97057424 26963
SNAP-3 JIMI             
1 40975U 15058M   24311.29324500  .00024807  00000+0  18689-2 0  9994
2 40975  64.7685 266.6221 0174268 263.2030  94.9227 14.91102290 26181
PROPCUBE 1 (FLORA)      
1 40976U 15058N   24311.14605071  .00013073  00000+0  11772-2 0  9993
2 40976  64.7760 311.3246 0187769 264.2058  93.7618 14.83322406 28831
SINOD-D 3               
1 40977U 15058P   24311.39085151  .00019431  00000+0  16548-2 0  9992
2 40977  64.7747 302.3323 0180582 263.3961  94.6566 14.86033287 27135
HORYU-4                 
1 41340U 16012D   24311.17091010  .00035777  00000+0  14446-2 0  9991
2 41340  30.9980 126.0597 0009456 348.9046  11.1387 15.23553555479764
RAVAN                   
1 41849U 16067B   24311.04410881  .00032792  00000+0  15252-2 0  9992
2 41849  98.0619 137.6383 0010739 266.5865  93.4140 15.19839963437481
CELTEE 1                
1 41850U 16067C   24311.22845011  .00018434  00000+0  11362-2 0  9996
2 41850  98.1089 128.4520 0002148  77.7997 282.3471 15.10015176436836
OPTICUBE 04             
1 41851U 16067D   24310.70197119  .00010281  00000+0  73177-3 0  9993
2 41851  98.0856 121.8701 0016855 303.8435  56.1185 15.04729539436507
AEROCUBE 8D             
1 41852U 16067E   24311.01133006  .00017760  00000+0  10396-2 0  9996
2 41852  98.1125 128.4044 0004773   2.5978 357.5275 15.11892361436793
AEROCUBE 8C             
1 41853U 16067F   24310.76240898  .00019864  00000+0  11618-2 0  9991
2 41853  98.0956 126.3783 0006283 285.1454  74.9080 15.11890222436741
PROMETHEUS 2-1          
1 41854U 16067G   24311.07011301  .00048732  00000+0  18424-2 0  9990
2 41854  98.0967 136.8520 0009844 294.6580  65.3631 15.26764441437308
PROMETHEUS 2-3          
1 41855U 16067H   24311.07168992  .00049295  00000+0  18691-2 0  9991
2 41855  98.0905 136.2047 0008551 305.6968  54.3473 15.26676100437302
CORVUS BC2              
1 42846U 17042X   24311.47070167  .00011569  00000+0  93261-3 0  9996
2 42846  97.3762 128.8868 0008230 308.8999  51.1490 15.00026014398751
CORVUS BC1              
1 42847U 17042Y   24311.48383961  .00011097  00000+0  89191-3 0  9990
2 42847  97.3715 129.3173 0008498 290.9522  69.0792 15.00148471398771
MIRATA                  
1 43015U 17073C   24311.22972337  .00076958  00000+0  27150-2 0  9998
2 43015  97.5690 195.1759 0141185 130.9265 230.4295 15.19951684377803
MAKERSAT 0              
1 43016U 17073D   24310.60721402  .00034059  00000+0  16932-2 0  9997
2 43016  97.5482 186.0121 0174817 162.1298 198.6183 15.05111410377133
SIRION PATHFINDER-2     
1 43759U 18099B   24310.73450134  .00014784  00000+0  10208-2 0  9998
2 43759  97.5106   3.0205 0011114 157.0610 203.1115 15.05812819323782
CORVUS BC4              
1 43767U 18099K   24311.11152214  .00012168  00000+0  86557-3 0  9993
2 43767  97.4925   0.1279 0008990 214.9733 145.0904 15.04762545323717
MOVE-II                 
1 43780U 18099Y   24310.41917757  .00083036  00000+0  29523-2 0  9992
2 43780  97.5005  13.0049 0004794 196.1522 163.9565 15.28651719324398
SPACEBEE-7              
1 43816U 18099BL  24310.42284596  .00050209  00000+0  23314-2 0  9999
2 43816  97.5297  12.9571 0008802 153.5569 206.6117 15.19802686323793
SPACEBEE-6              
1 43818U 18099BN  24311.17258301  .00246940  00000+0  44047-2 0  9994
2 43818  97.5181  22.7021 0003917 161.6375 198.5017 15.49161757324657
SHIELDS 1               
1 43850U 18104B   24310.37420413  .00041809  00000+0  87200-3 0  9999
2 43850  85.0232 186.8357 0006226 258.3478 101.7078 15.45360023327907
SONATE                  
1 44400U 19038Q   24311.27349707  .00072094  00000+0  14617-2 0  9995
2 44400  97.7150 312.8148 0010737 330.2866  29.7771 15.46071498295932
LUCKY-7                 
1 44406U 19038W   24310.57972338  .00287899  00000+0  19452-2 0  9998
2 44406  97.6935 319.4762 0003059 301.3761  58.7203 15.74226356296338
DUCHIFAT-3              
1 44854U 19089C   24311.26656717  .00059552  00000+0  22754-2 0  9990
2 44854  36.9532 261.4620 0011716 225.7340 134.2449 15.25533691269830
M2 PATHFINDER           
1 45727U 20037E   24311.46033740  .00010587  00000+0  87034-3 0  9990
2 45727  97.7841 127.4093 0012256  15.8215 344.3388 14.99276161237244
NETSAT-4                
1 46504U 20068U   24310.44884262  .00032466  00000+0  14730-2 0  9990
2 46504  97.8229 272.0149 0006730 222.0888 137.9830 15.20727216225596
NETSAT-3                
1 46505U 20068V   24311.47614185  .00028638  00000+0  13225-2 0  9994
2 46505  97.8215 272.4102 0006002 229.9215 130.1493 15.20150326225735
NETSAT-1                
1 46506U 20068W   24310.46853426  .00023311  00000+0  11681-2 0  9993
2 46506  97.8237 270.4172 0005027 251.6152 108.4534 15.17359509225513
NETSAT-2                
1 46507U 20068X   24310.46983639  .00030614  00000+0  13941-2 0  9999
2 46507  97.8214 271.6282 0003838 257.7318 102.3486 15.20626686225542
WILDTRACKCUBE-SIMBA     
1 47941U 21022K   24311.45746645  .00045864  00000+0  15953-2 0  9995
2 47941  97.4408 207.4703 0013904  15.8100 344.3572 15.29474098200148
GRBALPHA                
1 47959U 21022AD  24311.46307758  .00080069  00000+0  20893-2 0  9998
2 47959  97.4404 210.6332 0011195  10.3078 349.8394 15.38457227199178
BEESAT-8                
1 48085U 21022AP  24310.71594534  .00153918  00000+0  25417-2 0  9997
2 48085  97.4672 215.6494 0007658  16.7151 343.4352 15.51673092199653
LEDSAT                  
1 49069U 21073D   24311.15484673  .00050926  00000+0  14992-2 0  9998
2 49069  97.4206  22.0389 0016203 138.5245 221.7231 15.34762898178144
ROBUSTA-1F (MTCUBE 2)   
1 53109U 22080E   24309.94527404 -.00000003  00000+0  00000+0 0  9995
2 53109  70.1146 143.1834 0008313  58.3179 301.8290  6.42584221 54209
SITRO-AIS 5 (KATYS)     
1 57176U 23091L   24311.46449840  .00024567  00000+0  13863-2 0  9997
2 57176  97.5930   2.6730 0016128 359.9388   0.1838 15.13029795 74971
SITRO-AIS 6 (CHIRKIN)   
1 57192U 23091AC  24311.37923400  .00024616  00000+0  13886-2 0  9994
2 57192  97.5926   2.6192 0016024 359.2781   0.8424 15.13043016 74960
SITRO-AIS 8 (ANOKHIN)   
1 57193U 23091AD  24311.43634360  .00027824  00000+0  15391-2 0  9993
2 57193  97.5927   2.8396 0015708 359.8427   0.2796 15.13722502 74983
SITRO-AIS 7 (FARTUSHNIY)
1 57194U 23091AE  24311.05915103  .00020772  00000+0  11763-2 0  9993
2 57194  97.5928   2.2675 0015957   1.7189 358.4094 15.12942602 74919
SITRO-AIS 10 (BURDAEV)  
1 57199U 23091AK  24311.48412153  .00029831  00000+0  15494-2 0  9992
2 57199  97.5942   4.2499 0010842 348.9358  11.1634 15.16000062 75078
SITRO-AIS 9 (SHCHUKIN)  
1 57201U 23091AM  24311.41914142  .00029774  00000+0  15492-2 0  9998
2 57201  97.5938   4.1504 0010832 349.2668  10.8332 15.15938277 75067
SITRO-AIS 12 (SMIRENNIY)
1 57204U 23091AQ  24311.42936407  .00030668  00000+0  15865-2 0  9998
2 57204  97.5948   4.3506 0010569 342.7035  17.3836 15.16138024 75073
SITRO-AIS 11 (SHEFFER)  
1 57208U 23091AU  24311.47093088  .00031634  00000+0  16297-2 0  9990
2 57208  97.5943   4.4343 0010419 343.4728  16.6163 15.16279125 75087
VERONIKA                
1 58261U 23174F   24311.45510984  .00070511  00000+0  22195-2 0  9990
2 58261  97.4446  25.7555 0010132 100.4667 259.7717 15.32621345 55402
ROBUSTA-1E (ENSO)       
1 58470U 23185J   24311.45952956  .00058623  00000+0  18375-2 0  9998
2 58470  97.4077  17.3405 0010946 132.2039 228.0134 15.32804788 51855
SITRO-AIS 29            
1 59052U 24039B   24311.43266760  .00091318  00000+0  21290-2 0  9991
2 59052  97.4068 273.5328 0017679  75.1807 285.1397 15.41742701 38395
